{
  "type": "FeatureCollection",
  "features": [
    {
      "type": "Feature",
      "properties": {
        "norad_id": 31007,
        "name": "FENGYUN 1C DEB",
        "group": "fengyun-1c-debris",
        "lat": -81.64172968344133,
        "lon": 80.37228941803933,
        "alt_km": 741.0186173954044,
        "timestamp": "2025-12-09T21:34:11.687918+00:00",
        "meta_object_name": "FENGYUN 1C DEB",
        "meta_object_id": "1999-025BCZ",
        "meta_epoch": "2025-12-09T12:06:47.649024",
        "meta_mean_motion": 14.58537921,
        "meta_eccentricity": 0.00675739,
        "meta_inclination": 98.0869,
        "meta_ra_of_asc_node": 335.3933,
        "meta_arg_of_pericenter": 47.8679,
        "meta_mean_anomaly": 312.8236,
        "meta_ephemeris_type": 0,
        "meta_classification_type": "U",
        "meta_norad_cat_id": 31007,
        "meta_element_set_no": 999,
        "meta_rev_at_epoch": 98047,
        "meta_bstar": 0.003067587,
        "meta_mean_motion_dot": 0.00014696,
        "meta_mean_motion_ddot": 0,
        "tle_line1": "1 31007U 99025BCZ 25343.50471816  .00014696  00000+0  30676-2 0  9994",
        "tle_line2": "2 31007  98.0869 335.3933 0067573  47.8679 312.8236 14.58537921980479"
      },
      "geometry": {
        "type": "Point",
        "coordinates": [
          80.37228941803933,
          -81.64172968344133
        ]
      }
    },
    {
      "type": "Feature",
      "properties": {
        "norad_id": 31009,
        "name": "FENGYUN 1C DEB",
        "group": "fengyun-1c-debris",
        "lat": 51.80182477223343,
        "lon": -31.68504737361569,
        "alt_km": 925.1202059401903,
        "timestamp": "2025-12-09T21:34:11.687929+00:00",
        "meta_object_name": "FENGYUN 1C DEB",
        "meta_object_id": "1999-025BDB",
        "meta_epoch": "2025-12-09T11:45:19.404288",
        "meta_mean_motion": 14.00362426,
        "meta_eccentricity": 0.00527722,
        "meta_inclination": 98.8978,
        "meta_ra_of_asc_node": 339.4005,
        "meta_arg_of_pericenter": 246.4696,
        "meta_mean_anomaly": 265.7121,
        "meta_ephemeris_type": 0,
        "meta_classification_type": "U",
        "meta_norad_cat_id": 31009,
        "meta_element_set_no": 999,
        "meta_rev_at_epoch": 95815,
        "meta_bstar": 0.0002711566,
        "meta_mean_motion_dot": 3.63e-06,
        "meta_mean_motion_ddot": 0,
        "tle_line1": "1 31009U 99025BDB 25343.48980792  .00000363  00000+0  27116-3 0  9993",
        "tle_line2": "2 31009  98.8978 339.4005 0052772 246.4696 265.7121 14.00362426958158"
      },
      "geometry": {
        "type": "Point",
        "coordinates": [
          -31.68504737361569,
          51.80182477223343
        ]
      }
    },
    {
      "type": "Feature",
      "properties": {
        "norad_id": 31010,
        "name": "FENGYUN 1C DEB",
        "group": "fengyun-1c-debris",
        "lat": -32.591380839550084,
        "lon": -57.685473351371215,
        "alt_km": 881.277250757309,
        "timestamp": "2025-12-09T21:34:11.687939+00:00",
        "meta_object_name": "FENGYUN 1C DEB",
        "meta_object_id": "1999-025BDC",
        "meta_epoch": "2025-12-08T20:59:27.174048",
        "meta_mean_motion": 14.25705594,
        "meta_eccentricity": 0.0113303,
        "meta_inclination": 101.7268,
        "meta_ra_of_asc_node": 128.5797,
        "meta_arg_of_pericenter": 4.602,
        "meta_mean_anomaly": 355.6164,
        "meta_ephemeris_type": 0,
        "meta_classification_type": "U",
        "meta_norad_cat_id": 31010,
        "meta_element_set_no": 999,
        "meta_rev_at_epoch": 95574,
        "meta_bstar": 0.0038446,
        "meta_mean_motion_dot": 9.704e-05,
        "meta_mean_motion_ddot": 0,
        "tle_line1": "1 31010U 99025BDC 25342.87462007  .00009704  00000+0  38446-2 0  9996",
        "tle_line2": "2 31010 101.7268 128.5797 0113303   4.6020 355.6164 14.25705594955746"
      },
      "geometry": {
        "type": "Point",
        "coordinates": [
          -57.685473351371215,
          -32.591380839550084
        ]
      }
    },
    {
      "type": "Feature",
      "properties": {
        "norad_id": 31012,
        "name": "FENGYUN 1C DEB",
        "group": "fengyun-1c-debris",
        "lat": -61.84559267869209,
        "lon": -101.01083103448873,
        "alt_km": 759.271661617935,
        "timestamp": "2025-12-09T21:34:11.687950+00:00",
        "meta_object_name": "FENGYUN 1C DEB",
        "meta_object_id": "1999-025BDE",
        "meta_epoch": "2025-12-08T15:53:43.298880",
        "meta_mean_motion": 14.2785719,
        "meta_eccentricity": 0.0081317,
        "meta_inclination": 98.9116,
        "meta_ra_of_asc_node": 240.6795,
        "meta_arg_of_pericenter": 263.4087,
        "meta_mean_anomaly": 160.8335,
        "meta_ephemeris_type": 0,
        "meta_classification_type": "U",
        "meta_norad_cat_id": 31012,
        "meta_element_set_no": 999,
        "meta_rev_at_epoch": 97689,
        "meta_bstar": 0.0003938,
        "meta_mean_motion_dot": 9.62e-06,
        "meta_mean_motion_ddot": 0,
        "tle_line1": "1 31012U 99025BDE 25342.66230670  .00000962  00000+0  39380-3 0  9990",
        "tle_line2": "2 31012  98.9116 240.6795 0081317 263.4087 160.8335 14.27857190976895"
      },
      "geometry": {
        "type": "Point",
        "coordinates": [
          -101.01083103448873,
          -61.84559267869209
        ]
      }
    },
    {
      "type": "Feature",
      "properties": {
        "norad_id": 31014,
        "name": "FENGYUN 1C DEB",
        "group": "fengyun-1c-debris",
        "lat": 47.171945300539385,
        "lon": 149.29781485381235,
        "alt_km": 871.7383349175361,
        "timestamp": "2025-12-09T21:34:11.687960+00:00",
        "meta_object_name": "FENGYUN 1C DEB",
        "meta_object_id": "1999-025BDG",
        "meta_epoch": "2025-12-08T09:38:03.685056",
        "meta_mean_motion": 13.98486493,
        "meta_eccentricity": 0.00875199,
        "meta_inclination": 98.8677,
        "meta_ra_of_asc_node": 318.1539,
        "meta_arg_of_pericenter": 205.3828,
        "meta_mean_anomaly": 313.3837,
        "meta_ephemeris_type": 0,
        "meta_classification_type": "U",
        "meta_norad_cat_id": 31014,
        "meta_element_set_no": 999,
        "meta_rev_at_epoch": 95775,
        "meta_bstar": 0.00044052237,
        "meta_mean_motion_dot": 6.09e-06,
        "meta_mean_motion_ddot": 0,
        "tle_line1": "1 31014U 99025BDG 25342.40143154  .00000609  00000+0  44052-3 0  9994",
        "tle_line2": "2 31014  98.8677 318.1539 0087519 205.3828 313.3837 13.98486493957750"
      },
      "geometry": {
        "type": "Point",
        "coordinates": [
          149.29781485381235,
          47.171945300539385
        ]
      }
    },
    {
      "type": "Feature",
      "properties": {
        "norad_id": 31016,
        "name": "FENGYUN 1C DEB",
        "group": "fengyun-1c-debris",
        "lat": -77.14199756083552,
        "lon": 40.365821102361274,
        "alt_km": 717.2073635466058,
        "timestamp": "2025-12-09T21:34:11.687970+00:00",
        "meta_object_name": "FENGYUN 1C DEB",
        "meta_object_id": "1999-025BDJ",
        "meta_epoch": "2025-12-09T00:15:40.866624",
        "meta_mean_motion": 14.30484088,
        "meta_eccentricity": 0.01120318,
        "meta_inclination": 98.4364,
        "meta_ra_of_asc_node": 358.9486,
        "meta_arg_of_pericenter": 285.3039,
        "meta_mean_anomaly": 104.9032,
        "meta_ephemeris_type": 0,
        "meta_classification_type": "U",
        "meta_norad_cat_id": 31016,
        "meta_element_set_no": 999,
        "meta_rev_at_epoch": 97417,
        "meta_bstar": 0.00042963199,
        "meta_mean_motion_dot": 1.154e-05,
        "meta_mean_motion_ddot": 0,
        "tle_line1": "1 31016U 99025BDJ 25343.01088966  .00001154  00000+0  42963-3 0  9998",
        "tle_line2": "2 31016  98.4364 358.9486 0112031 285.3039 104.9032 14.30484088974175"
      },
      "geometry": {
        "type": "Point",
        "coordinates": [
          40.365821102361274,
          -77.14199756083552
        ]
      }
    },
    {
      "type": "Feature",
      "properties": {
        "norad_id": 31017,
        "name": "FENGYUN 1C DEB",
        "group": "fengyun-1c-debris",
        "lat": 57.714936139147724,
        "lon": 164.1250821437218,
        "alt_km": 901.9169682653946,
        "timestamp": "2025-12-09T21:34:11.687981+00:00",
        "meta_object_name": "FENGYUN 1C DEB",
        "meta_object_id": "1999-025BDK",
        "meta_epoch": "2025-12-06T04:38:35.153952",
        "meta_mean_motion": 14.08805775,
        "meta_eccentricity": 0.0113514,
        "meta_inclination": 98.68,
        "meta_ra_of_asc_node": 326.565,
        "meta_arg_of_pericenter": 8.6706,
        "meta_mean_anomaly": 49.7246,
        "meta_ephemeris_type": 0,
        "meta_classification_type": "U",
        "meta_norad_cat_id": 31017,
        "meta_element_set_no": 999,
        "meta_rev_at_epoch": 96204,
        "meta_bstar": 0.00075837839,
        "meta_mean_motion_dot": 1.346e-05,
        "meta_mean_motion_ddot": 0,
        "tle_line1": "1 31017U 99025BDK 25340.19346243  .00001346  00000+0  75838-3 0  9990",
        "tle_line2": "2 31017  98.6800 326.5650 0113514   8.6706  49.7246 14.08805775962042"
      },
      "geometry": {
        "type": "Point",
        "coordinates": [
          164.1250821437218,
          57.714936139147724
        ]
      }
    }
  ]
}